STARLINK-3391           
1 51117U 22005P   24210.84687478 -.00001435  00000+0 -72091-4 0  9992
2 51117  53.2176  52.4234 0001434  91.3145 268.8011 15.08848702141090
STARLINK-3394           
1 51118U 22005Q   24210.87633036  .00001936  00000+0  13969-3 0  9999
2 51118  53.2164  52.4058 0001472  85.7935 274.3225 15.08838047141098
STARLINK-3398           
1 51120U 22005S   24209.98672793 -.00002035  00000+0 -10987-3 0  9995
2 51120  53.2175  56.4076 0001241  81.6939 278.4194 15.08829948140965
STARLINK-3399           
1 51121U 22005T   24209.93520768 -.00002976  00000+0 -16900-3 0  9990
2 51121  53.2174  56.6422 0001210  86.8863 273.2268 15.08828146140954
STARLINK-3392           
1 51123U 22005V   24210.84323746  .00017653  00000+0  11268-2 0  9998
2 51123  53.2168  52.5587 0001862  89.6745 270.4460 15.08762740141062
STARLINK-3389           
1 51124U 22005W   24210.55525431 -.00001024  00000+0 -46248-4 0  9997
2 51124  53.2136  63.8485 0001266  91.1737 268.9400 15.08834032140910
STARLINK-3387           
1 51125U 22005X   24210.87637802  .00004114  00000+0  27638-3 0  9991
2 51125  53.2161  62.4186 0001013  76.8578 283.2527 15.08846531140956
STARLINK-3386           
1 51126U 22005Y   24210.88373267  .00001613  00000+0  11940-3 0  9995
2 51126  53.2171  62.3802 0001322 106.8393 253.2744 15.08832845140966
STARLINK-3370           
1 51127U 22005Z   24210.88004858 -.00000440  00000+0 -95237-5 0  9995
2 51127  53.2169  62.3976 0001456  98.2111 261.9046 15.08843386140969
STARLINK-3400           
1 51128U 22005AA  24210.86068656 -.00004200  00000+0 -24579-3 0  9997
2 51128  53.2176  62.4758 0001108 112.0622 248.0487 15.08861038140951
STARLINK-3396           
1 51129U 22005AB  24210.55621142 -.00002550  00000+0 -14221-3 0  9998
2 51129  53.2130  63.8425 0001419  74.9348 285.1801 15.08828926140922
STARLINK-3395           
1 51130U 22005AC  24210.87173800  .00004062  00000+0  27315-3 0  9994
2 51130  53.2162  62.4276 0001501  73.5013 286.6144 15.08837320140951
STARLINK-3388           
1 51131U 22005AD  24210.86437339  .00001691  00000+0  12429-3 0  9999
2 51131  53.2169  62.4612 0001487 101.1406 258.9753 15.08843806140954
STARLINK-3393           
1 51132U 22005AE  24209.94069204  .00000769  00000+0  66426-4 0  9991
2 51132  53.2168  66.6064 0001198  85.9161 274.1968 15.08840129140815
STARLINK-3356           
1 51133U 22005AF  24210.85701691 -.00000088  00000+0  12536-4 0  9995
2 51133  53.2168  62.4978 0001403  86.6863 273.4290 15.08835998140953
STARLINK-3183           
1 51134U 22005AG  24210.22960983  .00006798  00000+0  44487-3 0  9990
2 51134  53.2164  55.3099 0001042  86.4495 273.6616 15.08831736141000
STARLINK-3363           
1 51135U 22005AH  24210.78437117  .00012793  00000+0  82038-3 0  9996
2 51135  53.2158  62.7933 0001433  88.3902 271.7254 15.08840165140946
STARLINK-3253           
1 51136U 22005AJ  24210.83491194  .00001281  00000+0  98570-4 0  9997
2 51136  53.2173  62.3924 0001400  80.9538 279.1613 15.08841157140962
STARLINK-3180           
1 51137U 22005AK  24210.84229782  .00008101  00000+0  52644-3 0  9990
2 51137  53.2151  62.5617 0001600  89.6662 270.4513 15.08844796140950
STARLINK-3177           
1 51138U 22005AL  24210.84965259  .00000571  00000+0  53956-4 0  9998
2 51138  53.2183  62.5278 0001545  57.5068 302.6073 15.08855891140958
STARLINK-3172           
1 51139U 22005AM  24210.83590850  .00014060  00000+0  90137-3 0  9998
2 51139  53.2160  62.6012 0002397  76.8058 283.3201 15.08771875140957
STARLINK-3175           
1 51140U 22005AN  24209.91957547 -.00000308  00000+0 -12426-5 0  9996
2 51140  53.2164  66.7141 0001157  92.2830 267.8295 15.08837554140816
STARLINK-3179           
1 51141U 22005AP  24210.82757067  .00001022  00000+0  82312-4 0  9996
2 51141  53.2172  62.6261 0001502  91.2237 268.8927 15.08842432140957
STARLINK-3369           
1 51142U 22005AQ  24209.90114405 -.00000985  00000+0 -43789-4 0  9991
2 51142  53.2168  56.8544 0001185  85.3416 274.7712 15.08840319140985
STARLINK-3184           
1 51143U 22005AR  24210.34825714  .00003039  00000+0  20891-3 0  9993
2 51143  53.2177  74.7816 0001233  84.3716 275.7417 15.08840680140730
STARLINK-3185           
1 51144U 22005AS  24210.83223785  .00019278  00000+0  12289-2 0  9991
2 51144  53.2172  62.6168 0002196 102.7458 257.3780 15.08753807140956
STARLINK-3365           
1 51145U 22005AT  24210.80825547 -.00000848  00000+0 -35176-4 0  9990
2 51145  53.2169  72.7168 0001160  79.9601 280.1522 15.08839954140800
STARLINK-3354           
1 51146U 22005AU  24210.83956581 -.00008100  00000+0 -49087-3 0  9991
2 51146  53.2167  62.5840 0001577  98.7641 261.3529 15.08876851140959
STARLINK-3352           
1 51147U 22005AV  24210.35193336  .00002212  00000+0  15706-3 0  9997
2 51147  53.2159  74.7622 0001435  85.7566 274.3590 15.08839104140748
STARLINK-3359           
1 51148U 22005AW  24210.82395424  .00001819  00000+0  13241-3 0  9996
2 51148  53.2176  72.8484 0001490  79.3472 280.7688 15.08830909140809
