OBJECT_NAME,OBJECT_ID,EPOCH,MEAN_MOTION,ECCENTRICITY,INCLINATION,RA_OF_ASC_NODE,ARG_OF_PERICENTER,MEAN_ANOMALY,EPHEMERIS_TYPE,CLASSIFICATION_TYPE,NORAD_CAT_ID,ELEMENT_SET_NO,REV_AT_EPOCH,BSTAR,MEAN_MOTION_DOT,MEAN_MOTION_DDOT
STARLINK-3391,2022-005P,2024-07-28T20:19:29.980992,15.08848702,.0001434,53.2176,52.4234,91.3145,268.8011,0,U,51117,999,14109,-.72091E-4,-.1435E-4,0
STARLINK-3394,2022-005Q,2024-07-28T21:01:54.943104,15.08838047,.0001472,53.2164,52.4058,85.7935,274.3225,0,U,51118,999,14109,.13969E-3,.1936E-4,0
STARLINK-3398,2022-005S,2024-07-27T23:40:53.293152,15.08829948,.0001241,53.2175,56.4076,81.6939,278.4194,0,U,51120,999,14096,-.10987E-3,-.2035E-4,0
STARLINK-3399,2022-005T,2024-07-27T22:26:41.943552,15.08828146,.000121,53.2174,56.6422,86.8863,273.2268,0,U,51121,999,14095,-.169E-3,-.2976E-4,0
STARLINK-3392,2022-005V,2024-07-28T20:14:15.716544,15.08762740,.0001862,53.2168,52.5587,89.6745,270.4460,0,U,51123,999,14106,.11268E-2,.17653E-3,0
STARLINK-3389,2022-005W,2024-07-28T13:19:33.972384,15.08834032,.0001266,53.2136,63.8485,91.1737,268.9400,0,U,51124,999,14091,-.46248E-4,-.1024E-4,0
STARLINK-3387,2022-005X,2024-07-28T21:01:59.060928,15.08846531,.0001013,53.2161,62.4186,76.8578,283.2527,0,U,51125,999,14095,.27638E-3,.4114E-4,0
STARLINK-3386,2022-005Y,2024-07-28T21:12:34.502688,15.08832845,.0001322,53.2171,62.3802,106.8393,253.2744,0,U,51126,999,14096,.1194E-3,.1613E-4,0
STARLINK-3370,2022-005Z,2024-07-28T21:07:16.197312,15.08843386,.0001456,53.2169,62.3976,98.2111,261.9046,0,U,51127,999,14096,-.95237E-5,-.44E-5,0
STARLINK-3400,2022-005AA,2024-07-28T20:39:23.318784,15.08861038,.0001108,53.2176,62.4758,112.0622,248.0487,0,U,51128,999,14095,-.24579E-3,-.42E-4,0
STARLINK-3396,2022-005AB,2024-07-28T13:20:56.666688,15.08828926,.0001419,53.2130,63.8425,74.9348,285.1801,0,U,51129,999,14092,-.14221E-3,-.255E-4,0
STARLINK-3395,2022-005AC,2024-07-28T20:55:18.163200,15.08837320,.0001501,53.2162,62.4276,73.5013,286.6144,0,U,51130,999,14095,.27315E-3,.4062E-4,0
STARLINK-3388,2022-005AD,2024-07-28T20:44:41.860896,15.08843806,.0001487,53.2169,62.4612,101.1406,258.9753,0,U,51131,999,14095,.12429E-3,.1691E-4,0
STARLINK-3393,2022-005AE,2024-07-27T22:34:35.792256,15.08840129,.0001198,53.2168,66.6064,85.9161,274.1968,0,U,51132,999,14081,.66426E-4,.769E-5,0
STARLINK-3356,2022-005AF,2024-07-28T20:34:06.261024,15.08835998,.0001403,53.2168,62.4978,86.6863,273.4290,0,U,51133,999,14095,.12536E-4,-.88E-6,0
STARLINK-3183,2022-005AG,2024-07-28T05:30:38.289312,15.08831736,.0001042,53.2164,55.3099,86.4495,273.6616,0,U,51134,999,14100,.44487E-3,.6798E-4,0
STARLINK-3363,2022-005AH,2024-07-28T18:49:29.669088,15.08840165,.0001433,53.2158,62.7933,88.3902,271.7254,0,U,51135,999,14094,.82038E-3,.12793E-3,0
STARLINK-3253,2022-005AJ,2024-07-28T20:02:16.391616,15.08841157,.00014,53.2173,62.3924,80.9538,279.1613,0,U,51136,999,14096,.9857E-4,.1281E-4,0
STARLINK-3180,2022-005AK,2024-07-28T20:12:54.531648,15.08844796,.00016,53.2151,62.5617,89.6662,270.4513,0,U,51137,999,14095,.52644E-3,.8101E-4,0
STARLINK-3177,2022-005AL,2024-07-28T20:23:29.983776,15.08855891,.0001545,53.2183,62.5278,57.5068,302.6073,0,U,51138,999,14095,.53956E-4,.571E-5,0
STARLINK-3172,2022-005AM,2024-07-28T20:03:42.494400,15.08771875,.0002397,53.2160,62.6012,76.8058,283.3201,0,U,51139,999,14095,.90137E-3,.1406E-3,0
STARLINK-3175,2022-005AN,2024-07-27T22:04:11.320608,15.08837554,.0001157,53.2164,66.7141,92.2830,267.8295,0,U,51140,999,14081,-.12426E-5,-.308E-5,0
STARLINK-3179,2022-005AP,2024-07-28T19:51:42.105888,15.08842432,.0001502,53.2172,62.6261,91.2237,268.8927,0,U,51141,999,14095,.82312E-4,.1022E-4,0
STARLINK-3369,2022-005AQ,2024-07-27T21:37:38.845920,15.08840319,.0001185,53.2168,56.8544,85.3416,274.7712,0,U,51142,999,14098,-.43789E-4,-.985E-5,0
STARLINK-3184,2022-005AR,2024-07-28T08:21:29.416896,15.08840680,.0001233,53.2177,74.7816,84.3716,275.7417,0,U,51143,999,14073,.20891E-3,.3039E-4,0
STARLINK-3185,2022-005AS,2024-07-28T19:58:25.350240,15.08753807,.0002196,53.2172,62.6168,102.7458,257.3780,0,U,51144,999,14095,.12289E-2,.19278E-3,0
STARLINK-3365,2022-005AT,2024-07-28T19:23:53.272608,15.08839954,.000116,53.2169,72.7168,79.9601,280.1522,0,U,51145,999,14080,-.35176E-4,-.848E-5,0
STARLINK-3354,2022-005AU,2024-07-28T20:08:58.485984,15.08876851,.0001577,53.2167,62.5840,98.7641,261.3529,0,U,51146,999,14095,-.49087E-3,-.81E-4,0
STARLINK-3352,2022-005AV,2024-07-28T08:26:47.042304,15.08839104,.0001435,53.2159,74.7622,85.7566,274.3590,0,U,51147,999,14074,.15706E-3,.2212E-4,0
STARLINK-3359,2022-005AW,2024-07-28T19:46:29.646336,15.08830909,.000149,53.2176,72.8484,79.3472,280.7688,0,U,51148,999,14080,.13241E-3,.1819E-4,0
